{
  "type": "FeatureCollection",
  "features": [
    {
      "type": "Feature",
      "properties": {
        "norad_id": 43207,
        "name": "BEIDOU-3 M4 (C22)",
        "group": "beidou",
        "lat": 1.5895059924329649,
        "lon": -111.87560120291181,
        "alt_km": 21539.503291370682,
        "timestamp": "2025-12-16T21:38:57.439651+00:00",
        "meta_object_name": "BEIDOU-3 M4 (C22)",
        "meta_object_id": "2018-018A",
        "meta_epoch": "2025-12-13T09:57:17.275392",
        "meta_mean_motion": 1.86231174,
        "meta_eccentricity": 0.00041262,
        "meta_inclination": 56.4868,
        "meta_ra_of_asc_node": 69.2813,
        "meta_arg_of_pericenter": 7.8207,
        "meta_mean_anomaly": 352.2039,
        "meta_ephemeris_type": 0,
        "meta_classification_type": "U",
        "meta_norad_cat_id": 43207,
        "meta_element_set_no": 999,
        "meta_rev_at_epoch": 5328,
        "meta_bstar": 0,
        "meta_mean_motion_dot": -7.8e-07,
        "meta_mean_motion_ddot": 0,
        "tle_line1": "1 43207U 18018A   25347.41478328 -.00000078  00000+0  00000+0 0  9996",
        "tle_line2": "2 43207  56.4868  69.2813 0004126   7.8207 352.2039  1.86231174 53286"
      },
      "geometry": {
        "type": "Point",
        "coordinates": [
          -111.87560120291181,
          1.5895059924329649
        ]
      }
    },
    {
      "type": "Feature",
      "properties": {
        "norad_id": 43208,
        "name": "BEIDOU-3 M3 (C21)",
        "group": "beidou",
        "lat": 37.27749899008305,
        "lon": -141.05608816123112,
        "alt_km": 21541.77872407165,
        "timestamp": "2025-12-16T21:38:57.439662+00:00",
        "meta_object_name": "BEIDOU-3 M3 (C21)",
        "meta_object_id": "2018-018B",
        "meta_epoch": "2025-12-10T19:07:00.567840",
        "meta_mean_motion": 1.8623124,
        "meta_eccentricity": 0.0006564,
        "meta_inclination": 56.484,
        "meta_ra_of_asc_node": 69.3721,
        "meta_arg_of_pericenter": 317.0111,
        "meta_mean_anomaly": 42.9593,
        "meta_ephemeris_type": 0,
        "meta_classification_type": "U",
        "meta_norad_cat_id": 43208,
        "meta_element_set_no": 999,
        "meta_rev_at_epoch": 5323,
        "meta_bstar": 0,
        "meta_mean_motion_dot": -5.7e-07,
        "meta_mean_motion_ddot": 0,
        "tle_line1": "1 43208U 18018B   25344.79653435 -.00000057  00000+0  00000+0 0  9996",
        "tle_line2": "2 43208  56.4840  69.3721 0006564 317.0111  42.9593  1.86231240 53231"
      },
      "geometry": {
        "type": "Point",
        "coordinates": [
          -141.05608816123112,
          37.27749899008305
        ]
      }
    },
    {
      "type": "Feature",
      "properties": {
        "norad_id": 43245,
        "name": "BEIDOU-3 M9 (C29)",
        "group": "beidou",
        "lat": -9.348090479600673,
        "lon": -60.4780257796784,
        "alt_km": 21527.955245799174,
        "timestamp": "2025-12-16T21:38:57.439673+00:00",
        "meta_object_name": "BEIDOU-3 M9 (C29)",
        "meta_object_id": "2018-029A",
        "meta_epoch": "2025-12-15T07:24:03.092832",
        "meta_mean_motion": 1.86228295,
        "meta_eccentricity": 0.00015379,
        "meta_inclination": 54.363,
        "meta_ra_of_asc_node": 306.3776,
        "meta_arg_of_pericenter": 283.4598,
        "meta_mean_anomaly": 76.5102,
        "meta_ephemeris_type": 0,
        "meta_classification_type": "U",
        "meta_norad_cat_id": 43245,
        "meta_element_set_no": 999,
        "meta_rev_at_epoch": 5247,
        "meta_bstar": 0,
        "meta_mean_motion_dot": -9.9e-07,
        "meta_mean_motion_ddot": 0,
        "tle_line1": "1 43245U 18029A   25349.30836913 -.00000099  00000+0  00000+0 0  9991",
        "tle_line2": "2 43245  54.3630 306.3776 0001537 283.4598  76.5102  1.86228295 52470"
      },
      "geometry": {
        "type": "Point",
        "coordinates": [
          -60.4780257796784,
          -9.348090479600673
        ]
      }
    },
    {
      "type": "Feature",
      "properties": {
        "norad_id": 43246,
        "name": "BEIDOU-3 M10 (C30)",
        "group": "beidou",
        "lat": 25.449446030714295,
        "lon": -33.72546491519866,
        "alt_km": 21515.319977388484,
        "timestamp": "2025-12-16T21:38:57.439684+00:00",
        "meta_object_name": "BEIDOU-3 M10 (C30)",
        "meta_object_id": "2018-029B",
        "meta_epoch": "2025-12-15T05:50:48.210720",
        "meta_mean_motion": 1.86228929,
        "meta_eccentricity": 0.00041103,
        "meta_inclination": 54.3606,
        "meta_ra_of_asc_node": 306.4069,
        "meta_arg_of_pericenter": 1.1805,
        "meta_mean_anomaly": 358.8077,
        "meta_ephemeris_type": 0,
        "meta_classification_type": "U",
        "meta_norad_cat_id": 43246,
        "meta_element_set_no": 999,
        "meta_rev_at_epoch": 5245,
        "meta_bstar": 0,
        "meta_mean_motion_dot": -9.9e-07,
        "meta_mean_motion_ddot": 0,
        "tle_line1": "1 43246U 18029B   25349.24361355 -.00000099  00000+0  00000+0 0  9998",
        "tle_line2": "2 43246  54.3606 306.4069 0004110   1.1805 358.8077  1.86228929 52455"
      },
      "geometry": {
        "type": "Point",
        "coordinates": [
          -33.72546491519866,
          25.449446030714295
        ]
      }
    },
    {
      "type": "Feature",
      "properties": {
        "norad_id": 43539,
        "name": "BEIDOU-2 IGSO-7 (C16)",
        "group": "beidou",
        "lat": -2.1035367200963475,
        "lon": 163.15727513373113,
        "alt_km": 35996.606107696185,
        "timestamp": "2025-12-16T21:38:57.439695+00:00",
        "meta_object_name": "BEIDOU-2 IGSO-7 (C16)",
        "meta_object_id": "2018-057A",
        "meta_epoch": "2025-12-15T07:47:07.120608",
        "meta_mean_motion": 1.00256546,
        "meta_eccentricity": 0.00926218,
        "meta_inclination": 55.1766,
        "meta_ra_of_asc_node": 164.6485,
        "meta_arg_of_pericenter": 235.2644,
        "meta_mean_anomaly": 271.8458,
        "meta_ephemeris_type": 0,
        "meta_classification_type": "U",
        "meta_norad_cat_id": 43539,
        "meta_element_set_no": 999,
        "meta_rev_at_epoch": 2728,
        "meta_bstar": 0,
        "meta_mean_motion_dot": -2.3e-07,
        "meta_mean_motion_ddot": 0,
        "tle_line1": "1 43539U 18057A   25349.32438797 -.00000023  00000+0  00000+0 0  9995",
        "tle_line2": "2 43539  55.1766 164.6485 0092621 235.2644 271.8458  1.00256546 27289"
      },
      "geometry": {
        "type": "Point",
        "coordinates": [
          163.15727513373113,
          -2.1035367200963475
        ]
      }
    },
    {
      "type": "Feature",
      "properties": {
        "norad_id": 43581,
        "name": "BEIDOU-3 M5 (C23)",
        "group": "beidou",
        "lat": -45.23290482785686,
        "lon": 55.463867254614634,
        "alt_km": 21535.745238699623,
        "timestamp": "2025-12-16T21:38:57.439706+00:00",
        "meta_object_name": "BEIDOU-3 M5 (C23)",
        "meta_object_id": "2018-062A",
        "meta_epoch": "2025-12-12T05:55:01.607232",
        "meta_mean_motion": 1.86228672,
        "meta_eccentricity": 0.00021016,
        "meta_inclination": 54.0891,
        "meta_ra_of_asc_node": 188.6597,
        "meta_arg_of_pericenter": 354.1416,
        "meta_mean_anomaly": 5.9159,
        "meta_ephemeris_type": 0,
        "meta_classification_type": "U",
        "meta_norad_cat_id": 43581,
        "meta_element_set_no": 999,
        "meta_rev_at_epoch": 5015,
        "meta_bstar": 0,
        "meta_mean_motion_dot": 7.9e-07,
        "meta_mean_motion_ddot": 0,
        "tle_line1": "1 43581U 18062A   25346.24654638  .00000079  00000+0  00000+0 0  9990",
        "tle_line2": "2 43581  54.0891 188.6597 0002101 354.1416   5.9159  1.86228672 50154"
      },
      "geometry": {
        "type": "Point",
        "coordinates": [
          55.463867254614634,
          -45.23290482785686
        ]
      }
    },
    {
      "type": "Feature",
      "properties": {
        "norad_id": 43582,
        "name": "BEIDOU-3 M6 (C24)",
        "group": "beidou",
        "lat": -21.52063800167107,
        "lon": 171.88720427046246,
        "alt_km": 21524.975418709724,
        "timestamp": "2025-12-16T21:38:57.439717+00:00",
        "meta_object_name": "BEIDOU-3 M6 (C24)",
        "meta_object_id": "2018-062B",
        "meta_epoch": "2025-12-15T20:50:21.636672",
        "meta_mean_motion": 1.86229812,
        "meta_eccentricity": 0.00078211,
        "meta_inclination": 54.0887,
        "meta_ra_of_asc_node": 188.5256,
        "meta_arg_of_pericenter": 46.8936,
        "meta_mean_anomaly": 313.2408,
        "meta_ephemeris_type": 0,
        "meta_classification_type": "U",
        "meta_norad_cat_id": 43582,
        "meta_element_set_no": 999,
        "meta_rev_at_epoch": 5022,
        "meta_bstar": 0,
        "meta_mean_motion_dot": 1.14e-06,
        "meta_mean_motion_ddot": 0,
        "tle_line1": "1 43582U 18062B   25349.86830598  .00000114  00000+0  00000+0 0  9993",
        "tle_line2": "2 43582  54.0887 188.5256 0007821  46.8936 313.2408  1.86229812 50224"
      },
      "geometry": {
        "type": "Point",
        "coordinates": [
          171.88720427046246,
          -21.52063800167107
        ]
      }
    }
  ]
}